[{"OBJECT_NAME":"NINGXIA-1 6","OBJECT_ID":"2021-064A","EPOCH":"2026-03-09T23:21:54.693216","MEAN_MOTION":14.08518402,"ECCENTRICITY":0.00071764,"INCLINATION":45.0011,"RA_OF_ASC_NODE":315.3156,"ARG_OF_PERICENTER":113.7517,"MEAN_ANOMALY":246.4073,"EPHEMERIS_TYPE":0,"CLASSIFICATION_TYPE":"U","NORAD_CAT_ID":49018,"ELEMENT_SET_NO":999,"REV_AT_EPOCH":24022,"BSTAR":4.145978e-5,"MEAN_MOTION_DOT":-6.0e-7,"MEAN_MOTION_DDOT":0},{"OBJECT_NAME":"DNEPR 1 R\/B","OBJECT_ID":"2000-057F","EPOCH":"2026-03-09T18:07:09.798528","MEAN_MOTION":13.82062424,"ECCENTRICITY":0.05066889,"INCLINATION":64.5622,"RA_OF_ASC_NODE":221.5392,"ARG_OF_PERICENTER":54.4726,"MEAN_ANOMALY":310.2497,"EPHEMERIS_TYPE":0,"CLASSIFICATION_TYPE":"U","NORAD_CAT_ID":26550,"ELEMENT_SET_NO":999,"REV_AT_EPOCH":28294,"BSTAR":5.5935419e-5,"MEAN_MOTION_DOT":4.9e-7,"MEAN_MOTION_DDOT":0}]
